NORAD_CAT_ID,OBJECT_NAME,OBJECT_TYPE,EPOCH,MEAN_MOTION,ECCENTRICITY,INCLINATION,RA_OF_ASC_NODE,ARG_OF_PERICENTER,MEAN_ANOMALY,BSTAR,MEAN_MOTION_DOT,MEAN_MOTION_DDOT,TLE_LINE0,TLE_LINE1,TLE_LINE2,SEMIMAJOR_AXIS,PERIOD,APOGEE,PERIGEE,DECAYED
53886.0,STARLINK-5028,PAYLOAD,2023-05-29 20:10:55,15.08837456,9.96e-05,53.2152,200.184,89.5919,270.5188,2.2263e-05,6.7e-07,0.0,0 STARLINK-5028,1 53886U 22119A   23149.84091607  .00000067  00000-0  22263-4 0  9991,2 53886  53.2152 200.1840 0000996  89.5919 270.5188 15.08837456 38470,6917.888,95.438,540.442,539.064,0.0
53886.0,STARLINK-5028,PAYLOAD,2023-05-30 08:54:00,15.08832518,0.0001042,53.2153,197.8053,93.4539,266.6573,5.7839e-06,-1.96e-06,0.0,0 STARLINK-5028,1 53886U 22119A   23150.37084122 -.00000196  00000-0  57839-5 0  9997,2 53886  53.2153 197.8053 0001042  93.4539 266.6573 15.08832518 38135,6917.903,95.438,540.489,539.047,0.0
53886.0,STARLINK-5028,PAYLOAD,2023-05-30 12:04:46,15.08835533,0.0001031,53.2153,197.2105,92.0012,268.1098,8.9869e-06,-1.45e-06,0.0,0 STARLINK-5028,1 53886U 22119A   23150.50331970 -.00000145  00000-0  89869-5 0  9990,2 53886  53.2153 197.2105 0001031  92.0012 268.1098 15.08835533 38573,6917.894,95.438,540.472,539.046,0.0
53886.0,STARLINK-5028,PAYLOAD,2023-05-30 20:01:42,15.08836441,0.0001027,53.2153,195.7238,87.2906,272.8203,1.9335e-05,2e-07,0.0,0 STARLINK-5028,1 53886U 22119A   23150.83451963  .00000020  00000-0  19335-4 0  9992,2 53886  53.2153 195.7238 0001027  87.2906 272.8203 15.08836441 38621,6917.891,95.438,540.467,539.046,0.0
53886.0,STARLINK-5028,PAYLOAD,2023-05-31 10:20:10,15.08838204,0.000102,53.2152,193.0472,86.2883,273.8226,3.3342e-05,2.43e-06,0.0,0 STARLINK-5028,1 53886U 22119A   23151.43067915  .00000243  00000-0  33342-4 0  9990,2 53886  53.2152 193.0472 0001020  86.2883 273.8226 15.08838204 38295,6917.886,95.438,540.457,539.045,0.0
53886.0,STARLINK-5028,PAYLOAD,2023-05-31 19:52:29,15.088378,0.0001017,53.2153,191.2628,83.1694,276.9414,3.9454e-05,3.4e-06,0.0,0 STARLINK-5028,1 53886U 22119A   23151.82811961  .00000340  00000-0  39454-4 0  9999,2 53886  53.2153 191.2628 0001017  83.1694 276.9414 15.08837800 38778,6917.887,95.438,540.456,539.049,0.0
53886.0,STARLINK-5028,PAYLOAD,2023-06-01 10:10:57,15.08837479,0.0001017,53.2152,188.5864,82.7298,277.381,7.1907e-05,8.57e-06,0.0,0 STARLINK-5028,1 53886U 22119A   23152.42428016  .00000857  00000-0  71907-4 0  9993,2 53886  53.2152 188.5864 0001017  82.7298 277.3810 15.08837479 38860,6917.888,95.438,540.457,539.05,0.0
53886.0,STARLINK-5028,PAYLOAD,2023-06-01 19:43:16,15.08839865,0.000105,53.2156,186.8024,82.0058,278.1053,5.9077e-05,6.53e-06,0.0,0 STARLINK-5028,1 53886U 22119A   23152.82171953  .00000653  00000-0  59077-4 0  9990,2 53886  53.2156 186.8024 0001050  82.0058 278.1053 15.08839865 38507,6917.881,95.438,540.472,539.019,0.0
53886.0,STARLINK-5028,PAYLOAD,2023-06-02 08:26:21,15.08840182,0.0001123,53.2159,184.4238,80.6729,279.439,4.6174e-05,4.47e-06,0.0,0 STARLINK-5028,1 53886U 22119A   23153.35163992  .00000447  00000-0  46174-4 0  9998,2 53886  53.2159 184.4238 0001123  80.6729 279.4390 15.08840182 39009,6917.88,95.438,540.522,538.968,0.0
53886.0,STARLINK-5028,PAYLOAD,2023-06-02 19:34:03,15.08840543,0.0001124,53.2159,182.3424,79.7309,280.381,4.5533e-05,4.37e-06,0.0,0 STARLINK-5028,1 53886U 22119A   23153.81531978  .00000437  00000-0  45533-4 0  9999,2 53886  53.2159 182.3424 0001124  79.7309 280.3810 15.08840543 39073,6917.879,95.438,540.521,538.966,0.0
53886.0,STARLINK-5028,PAYLOAD,2023-06-03 01:55:36,15.08840124,0.0001154,53.2159,181.1529,79.8967,280.2156,4.3859e-05,4.1e-06,0.0,0 STARLINK-5028,1 53886U 22119A   23154.08028004  .00000410  00000-0  43859-4 0  9990,2 53886  53.2159 181.1529 0001154  79.8967 280.2156 15.08840124 38694,6917.88,95.438,540.543,538.947,0.0
53886.0,STARLINK-5028,PAYLOAD,2023-06-03 11:27:55,15.08840205,0.0001074,53.2156,179.3679,85.0986,275.0129,3.1031e-05,2.06e-06,0.0,0 STARLINK-5028,1 53886U 22119A   23154.47771991  .00000206  00000-0  31031-4 0  9995,2 53886  53.2156 179.3679 0001074  85.0986 275.0129 15.08840205 39173,6917.88,95.438,540.488,539.002,0.0
53886.0,STARLINK-5028,PAYLOAD,2023-06-04 08:07:55,15.08840492,0.0001046,53.2154,175.5018,88.839,271.2721,2.8346e-05,1.63e-06,0.0,0 STARLINK-5028,1 53886U 22119A   23155.33883925  .00000163  00000-0  28346-4 0  9999,2 53886  53.2154 175.5018 0001046  88.8390 271.2721 15.08840492 38886,6917.879,95.438,540.467,539.02,0.0
53886.0,STARLINK-5028,PAYLOAD,2023-06-04 11:18:41,15.08840404,0.0001049,53.2154,174.9071,88.3683,271.743,2.633e-05,1.31e-06,0.0,0 STARLINK-5028,1 53886U 22119A   23155.47131914  .00000131  00000-0  26330-4 0  9994,2 53886  53.2154 174.9071 0001049  88.3683 271.7430 15.08840404 39326,6917.879,95.438,540.47,539.018,0.0
53886.0,STARLINK-5028,PAYLOAD,2023-06-05 07:58:42,15.08838402,0.0001033,53.215,171.0408,87.9684,272.1426,2.6716e-05,1.37e-06,0.0,0 STARLINK-5028,1 53886U 22119A   23156.33244054  .00000137  00000-0  26716-4 0  9994,2 53886  53.2150 171.0408 0001033  87.9684 272.1426 15.08838402 39452,6917.885,95.438,540.465,539.036,0.0
53886.0,STARLINK-5028,PAYLOAD,2023-06-05 17:31:01,15.0883613,0.0001037,53.2149,169.2565,82.6113,277.4997,1.0471e-05,-1.21e-06,0.0,0 STARLINK-5028,1 53886U 22119A   23156.72988325 -.00000121  00000-0  10471-4 0  9998,2 53886  53.2149 169.2565 0001037  82.6113 277.4997 15.08836130 39510,6917.892,95.438,540.475,539.04,0.0
53886.0,STARLINK-5028,PAYLOAD,2023-06-05 23:52:34,15.08833986,0.000107,53.2148,168.0677,89.7031,270.4084,-7.6118e-06,-4.09e-06,0.0,0 STARLINK-5028,1 53886U 22119A   23156.99484575 -.00000409  00000-0 -76118-5 0  9996,2 53886  53.2148 168.0677 0001070  89.7031 270.4084 15.08833986 39138,6917.899,95.438,540.504,539.024,0.0
53886.0,STARLINK-5028,PAYLOAD,2023-06-06 11:00:16,15.08834231,0.0001066,53.2149,165.9863,90.2771,269.8343,-8.6111e-06,-4.25e-06,0.0,0 STARLINK-5028,1 53886U 22119A   23157.45852707 -.00000425  00000-0 -86111-5 0  9996,2 53886  53.2149 165.9863 0001066  90.2771 269.8343 15.08834231 39623,6917.898,95.438,540.5,539.026,0.0
53886.0,STARLINK-5028,PAYLOAD,2023-06-07 09:15:40,15.08838553,0.0001035,53.2152,161.8235,88.6344,271.4767,3.9223e-05,3.36e-06,0.0,0 STARLINK-5028,1 53886U 22119A   23158.38588475  .00000336  00000-0  39223-4 0  9997,2 53886  53.2152 161.8235 0001035  88.6344 271.4767 15.08838553 39347,6917.885,95.438,540.466,539.034,0.0
53886.0,STARLINK-5028,PAYLOAD,2023-06-07 17:12:36,15.08836665,0.0001028,53.2153,160.3367,89.8918,270.2192,4.41e-05,4.14e-06,0.0,0 STARLINK-5028,1 53886U 22119A   23158.71708621  .00000414  00000-0  44100-4 0  9998,2 53886  53.2153 160.3367 0001028  89.8918 270.2192 15.08836665 39813,6917.891,95.438,540.467,539.044,0.0
53886.0,STARLINK-5028,PAYLOAD,2023-06-08 09:06:27,15.08838105,0.000103,53.2152,157.3627,85.4546,274.6564,6.7521e-05,7.87e-06,0.0,0 STARLINK-5028,1 53886U 22119A   23159.37948594  .00000787  00000-0  67521-4 0  9991,2 53886  53.2152 157.3627 0001030  85.4546 274.6564 15.08838105 39912,6917.886,95.438,540.464,539.039,0.0
53886.0,STARLINK-5028,PAYLOAD,2023-06-08 17:03:23,15.08837071,0.0001025,53.2153,155.8758,82.8006,277.3102,4.6627e-05,4.54e-06,0.0,0 STARLINK-5028,1 53886U 22119A   23159.71068782  .00000454  00000-0  46627-4 0  9996,2 53886  53.2153 155.8758 0001025  82.8006 277.3102 15.08837071 39545,6917.889,95.438,540.463,539.045,0.0
53886.0,STARLINK-5028,PAYLOAD,2023-06-09 05:46:28,15.08838801,0.0001072,53.2154,153.4962,83.7682,276.3432,3.0085e-05,1.91e-06,0.0,0 STARLINK-5028,1 53886U 22119A   23160.24060781  .00000191  00000-0  30085-4 0  9996,2 53886  53.2154 153.4962 0001072  83.7682 276.3432 15.08838801 40043,6917.884,95.438,540.491,539.007,0.0
53886.0,STARLINK-5028,PAYLOAD,2023-06-09 16:54:10,15.08839199,0.0001074,53.2155,151.4149,82.835,277.2764,2.9255e-05,1.78e-06,0.0,0 STARLINK-5028,1 53886U 22119A   23160.70428771  .00000178  00000-0  29255-4 0  9996,2 53886  53.2155 151.4149 0001074  82.8350 277.2764 15.08839199 40110,6917.883,95.438,540.491,539.005,0.0
53886.0,STARLINK-5028,PAYLOAD,2023-06-10 00:51:06,15.08839476,0.0001082,53.2155,149.9282,82.0653,278.0462,2.6558e-05,1.35e-06,0.0,0 STARLINK-5028,1 53886U 22119A   23161.03548775  .00000135  00000-0  26558-4 0  9996,2 53886  53.2155 149.9282 0001082  82.0653 278.0462 15.08839476 39746,6917.882,95.438,540.496,538.998,0.0
53886.0,STARLINK-5028,PAYLOAD,2023-06-10 05:37:15,15.08841263,0.0001071,53.2155,149.036,82.6666,277.4448,4.1542e-05,3.73e-06,0.0,0 STARLINK-5028,1 53886U 22119A   23161.23420612  .00000373  00000-0  41542-4 0  9991,2 53886  53.2155 149.0360 0001071  82.6666 277.4448 15.08841263 40197,6917.877,95.437,540.482,539.001,0.0
53886.0,STARLINK-5028,PAYLOAD,2023-06-10 19:55:43,15.08839383,0.000108,53.2155,146.3599,81.159,278.9525,4.5072e-05,4.3e-06,0.0,0 STARLINK-5028,1 53886U 22119A   23161.83036704  .00000430  00000-0  45072-4 0  9998,2 53886  53.2155 146.3599 0001080  81.1590 278.9525 15.08839383 40283,6917.882,95.438,540.494,539.0,0.0
53886.0,STARLINK-5028,PAYLOAD,2023-06-11 08:38:48,15.08842432,0.0001094,53.2154,143.9809,82.2461,277.8655,5.5376e-05,5.94e-06,0.0,0 STARLINK-5028,1 53886U 22119A   23162.36028467  .00000594  00000-0  55376-4 0  9993,2 53886  53.2154 143.9809 0001094  82.2461 277.8655 15.08842432 39945,6917.873,95.437,540.495,538.981,0.0
53886.0,STARLINK-5028,PAYLOAD,2023-06-11 22:57:17,15.08838571,0.0001107,53.2154,141.3042,84.2906,275.8212,1.5054e-05,-4.8e-07,0.0,0 STARLINK-5028,1 53886U 22119A   23162.95644833 -.00000048  00000-0  15054-4 0  9993,2 53886  53.2154 141.3042 0001107  84.2906 275.8212 15.08838571 40035,6917.885,95.438,540.516,538.984,0.0
53886.0,STARLINK-5028,PAYLOAD,2023-06-12 02:08:03,15.08839638,0.0001102,53.2154,140.7094,84.2645,275.8472,2.3903e-05,9.3e-07,0.0,0 STARLINK-5028,1 53886U 22119A   23163.08892736  .00000093  00000-0  23903-4 0  9996,2 53886  53.2154 140.7094 0001102  84.2645 275.8472 15.08839638 40471,6917.881,95.438,540.509,538.984,0.0
